*******************************************************************************
JPL/HORIZONS                 2 Pallas (A802 FA)            2022-May-08 12:43:39
Rec #:       2 (+COV) Soln.date: 2022-Apr-14_14:47:29   # obs: 9025 (1804-2022)
 
IAU76/J2000 helio. ecliptic osc. elements (au, days, deg., period=Julian yrs):
 
  EPOCH=  2449976.5 ! 1995-Sep-16.00 (TDB)         Residual RMS= .37134
   EC= .2338123415749628   QR= 2.123204751285651   TP= 2449888.234262689
   OM= 173.2983467771782   W=  309.6979606055149   IN= 34.80769754202284
   A= 2.771128884599989    MA= 18.85867340545694   ADIST= 3.419053017914328
   PER= 4.6131             N= .213657909           ANGMOM= .027842097
   DAN= 2.27924            DDN= 3.07955            L= 128.6135357
   B= -26.0531402          MOID= 1.22421002        TP= 1995-Jun-19.7342626890
 
Asteroid physical parameters (km, seconds, rotational period in hours):
   GM= 13.63               RAD= 256.5              ROTPER= 7.813221
   H= 4.11                 G= .110                 B-V= .635
                           ALBEDO= .155            STYP= B
 
ASTEROID comments: 
1: soln ref.= JPL#52, OCC=0
2: source=ORB
*******************************************************************************


*******************************************************************************
Ephemeris / WWW_USER Sun May  8 12:43:40 2022 Pasadena, USA      / Horizons
*******************************************************************************
Target body name: 2 Pallas (A802 FA)              {source: JPL#52}
Center body name: Solar System Barycenter (0)     {source: DE441}
Center-site name: BODY CENTER
*******************************************************************************
Start time      : A.D. 1800-Jan-01 00:00:00.0000 TDB
Stop  time      : A.D. 2200-Jan-01 00:00:00.0000 TDB
Step-size       : 14400 minutes
*******************************************************************************
Center geodetic : 0.00000000,0.00000000,0.0000000 {E-lon(deg),Lat(deg),Alt(km)}
Center cylindric: 0.00000000,0.00000000,0.0000000 {E-lon(deg),Dxy(km),Dz(km)}
Center radii    : (undefined)                                                  
Small perturbers: Yes                             {source: SB441-N16}
Output units    : AU-D
Output type     : GEOMETRIC cartesian states
Output format   : 2 (position and velocity)
Reference frame : ICRF
*******************************************************************************
Initial IAU76/J2000 heliocentric ecliptic osculating elements (au, days, deg.):
  EPOCH=  2449976.5 ! 1995-Sep-16.00 (TDB)         Residual RMS= .37134        
   EC= .2338123415749628   QR= 2.123204751285651   TP= 2449888.234262689       
   OM= 173.2983467771782   W=  309.6979606055149   IN= 34.80769754202284       
  Equivalent ICRF heliocentric cartesian coordinates (au, au/d):
   X=-1.970054913847300E+00  Y= 9.344601720792679E-01  Z=-5.069228381032120E-02
  VX=-6.556101132986031E-03 VY=-1.072367279805506E-02 VZ= 2.566511942726757E-03
Asteroid physical parameters (km, seconds, rotational period in hours):        
   GM= 13.63               RAD= 256.5              ROTPER= 7.813221            
   H= 4.11                 G= .110                 B-V= .635                   
                           ALBEDO= .155            STYP= B                     
*******************************************************************************
JDTDB
   X     Y     Z
   VX    VY    VZ
*******************************************************************************
$$SOE
2521896.500000000 = A.D. 2192-Aug-13 00:00:00.0000 TDB 
 X = 2.966742308647215E+00 Y = 1.225795222880844E-01 Z =-2.929847880120993E-01
 VX=-2.545636698521307E-03 VY= 9.090449429793665E-03 VZ=-1.599694818700496E-03
2521906.500000000 = A.D. 2192-Aug-23 00:00:00.0000 TDB 
 X = 2.939624748519658E+00 Y = 2.133970108124514E-01 Z =-3.088146148233904E-01
 VX=-2.878495208220296E-03 VY= 9.071276898211170E-03 VZ=-1.565857826437560E-03
2521916.500000000 = A.D. 2192-Sep-02 00:00:00.0000 TDB 
 X = 2.909160331883434E+00 Y = 3.039689354544119E-01 Z =-3.242935788810367E-01
 VX=-3.214974654291771E-03 VY= 9.041266390242731E-03 VZ=-1.529511103767614E-03
2521926.500000000 = A.D. 2192-Sep-12 00:00:00.0000 TDB 
 X = 2.875313893196723E+00 Y = 3.941847818250435E-01 Z =-3.393962464712905E-01
 VX=-3.554861841999011E-03 VY= 8.999988316645190E-03 VZ=-1.490587230094724E-03
2521936.500000000 = A.D. 2192-Sep-22 00:00:00.0000 TDB 
 X = 2.838052536170797E+00 Y = 4.839296602582443E-01 Z =-3.540965060273283E-01
 VX=-3.897915669800476E-03 VY= 8.946997271590778E-03 VZ=-1.449018108556877E-03
2521946.500000000 = A.D. 2192-Oct-02 00:00:00.0000 TDB 
 X = 2.797345926515801E+00 Y = 5.730841497801902E-01 Z =-3.683675630573770E-01
 VX=-4.243864362968859E-03 VY= 8.881832493345791E-03 VZ=-1.404735313905588E-03
2521956.500000000 = A.D. 2192-Oct-12 00:00:00.0000 TDB 
 X = 2.753166613278424E+00 Y = 6.615241477556318E-01 Z =-3.821819388501140E-01
 VX=-4.592402521307240E-03 VY= 8.804018545201230E-03 VZ=-1.357670500860261E-03
2521966.500000000 = A.D. 2192-Oct-22 00:00:00.0000 TDB 
 X = 2.705490380628373E+00 Y = 7.491207276040674E-01 Z =-3.955114735882063E-01
 VX=-4.943187983027752E-03 VY= 8.713066255345523E-03 VZ=-1.307755878104935E-03
2521976.500000000 = A.D. 2192-Nov-01 00:00:00.0000 TDB 
 X = 2.654296631889705E+00 Y = 8.357400074158052E-01 Z =-4.083273345380613E-01
 VX=-5.295838510928346E-03 VY= 8.608473967803863E-03 VZ=-1.254924750111754E-03
2521986.500000000 = A.D. 2192-Nov-11 00:00:00.0000 TDB 
 X = 2.599568807694743E+00 Y = 9.212430328874471E-01 Z =-4.206000300648746E-01
 VX=-5.649928277613223E-03 VY= 8.489729161539412E-03 VZ=-1.199112146260895E-03
2521996.500000000 = A.D. 2192-Nov-21 00:00:00.0000 TDB 
 X = 2.541294840244027E+00 Y = 1.005485678381891E+00 Z =-4.322994304976175E-01
 VX=-6.004984169015254E-03 VY= 8.356310460269075E-03 VZ=-1.140255562879316E-03
2522006.500000000 = A.D. 2192-Dec-01 00:00:00.0000 TDB 
 X = 2.479467645200172E+00 Y = 1.088318570220747E+00 Z =-4.433947969629074E-01
 VX=-6.360481960686536E-03 VY= 8.207690079971323E-03 VZ=-1.078295813588143E-03
2522016.500000000 = A.D. 2192-Dec-11 00:00:00.0000 TDB 
 X = 2.414085652314248E+00 Y = 1.169587036931212E+00 Z =-4.538548192413931E-01
 VX=-6.715842400338796E-03 VY= 8.043336785202753E-03 VZ=-1.013177983174417E-03
2522026.500000000 = A.D. 2192-Dec-21 00:00:00.0000 TDB 
 X = 2.345153375570073E+00 Y = 1.249131091944815E+00 Z =-4.636476636948695E-01
 VX=-7.070427226096393E-03 VY= 7.862719437325692E-03 VZ=-9.448524902646412E-04
2522036.500000000 = A.D. 2192-Dec-31 00:00:00.0000 TDB 
 X = 2.272682023345018E+00 Y = 1.326785455063999E+00 Z =-4.727410324522932E-01
 VX=-7.423535151828599E-03 VY= 7.665311210748791E-03 VZ=-8.732762808502640E-04
2522046.500000000 = A.D. 2193-Jan-10 00:00:00.0000 TDB 
 X = 2.196690148651971E+00 Y = 1.402379619676356E+00 Z =-4.811022352830314E-01
 VX=-7.774397878260522E-03 VY= 7.450594534961143E-03 VZ=-7.984141749122119E-04
2522056.500000000 = A.D. 2193-Jan-20 00:00:00.0000 TDB 
 X = 2.117204338768810E+00 Y = 1.475737973224841E+00 Z =-4.886982757417411E-01
 VX=-8.122176222981260E-03 VY= 7.218066811305773E-03 VZ=-7.202403735779697E-04
2522066.500000000 = A.D. 2193-Jan-30 00:00:00.0000 TDB 
 X = 2.034259942453184E+00 Y = 1.546679978946934E+00 Z =-4.954959531299468E-01
 VX=-8.465956494803464E-03 VY= 6.967246963853426E-03 VZ=-6.387401120263823E-04
2522076.500000000 = A.D. 2193-Feb-09 00:00:00.0000 TDB 
 X = 1.947901831735106E+00 Y = 1.615020427684226E+00 Z =-5.014619817081429E-01
 VX=-8.804747219477381E-03 VY= 6.697682914863775E-03 VZ=-5.539114608814898E-04
2522086.500000000 = A.D. 2193-Feb-19 00:00:00.0000 TDB 
 X = 1.858185194179364E+00 Y = 1.680569769226168E+00 Z =-5.065631287251645E-01
 VX=-9.137476349577480E-03 VY= 6.408960018254872E-03 VZ=-4.657672854893073E-04
2522096.500000000 = A.D. 2193-Mar-01 00:00:00.0000 TDB 
 X = 1.765176349857781E+00 Y = 1.743134532903657E+00 Z =-5.107663727316716E-01
 VX=-9.462989142259114E-03 VY= 6.100710483949467E-03 VZ=-3.743373407865926E-04
2522106.500000000 = A.D. 2193-Mar-11 00:00:00.0000 TDB 
 X = 1.668953585461002E+00 Y = 1.802517847522690E+00 Z =-5.140390834787765E-01
 VX=-9.780046885599436E-03 VY= 5.772623822961611E-03 VZ=-2.796704917435812E-04
2522116.500000000 = A.D. 2193-Mar-21 00:00:00.0000 TDB 
 X = 1.569607996046589E+00 Y = 1.858520070828499E+00 Z =-5.163492245809568E-01
 VX=-1.008732668223748E-02 VY= 5.424458304271960E-03 VZ=-1.818370416980981E-04
2522126.500000000 = A.D. 2193-Mar-31 00:00:00.0000 TDB 
 X = 1.467244322697078E+00 Y = 1.910939538440456E+00 Z =-5.176655798828794E-01
 VX=-1.038342252437501E-02 VY= 5.056053382383531E-03 VZ=-8.093113912425915E-05
2522136.500000000 = A.D. 2193-Apr-10 00:00:00.0000 TDB 
 X = 1.361981771931139E+00 Y = 1.959573441607453E+00 Z =-5.179580041325641E-01
 VX=-1.066684791081310E-02 VY= 4.667343017177405E-03 VZ= 2.292677451311564E-05
2522146.500000000 = A.D. 2193-Apr-20 00:00:00.0000 TDB 
 X = 1.253954800162459E+00 Y = 2.004218842099423E+00 Z =-5.171976981597785E-01
 VX=-1.093604026390024E-02 VY= 4.258369752311314E-03 VZ= 1.295875206596939E-04
2522156.500000000 = A.D. 2193-Apr-30 00:00:00.0000 TDB 
 X = 1.143313843850728E+00 Y = 2.044673830828620E+00 Z =-5.153575081700138E-01
 VX=-1.118936742283763E-02 VY= 3.829299345773527E-03 VZ= 2.388708204736310E-04
2522166.500000000 = A.D. 2193-May-10 00:00:00.0000 TDB 
 X = 1.030225973179748E+00 Y = 2.080738834634917E+00 Z =-5.124122479427092E-01
 VX=-1.142513648379499E-02 VY= 3.380435731475015E-03 VZ= 3.505630844231826E-04
2522176.500000000 = A.D. 2193-May-20 00:00:00.0000 TDB 
 X = 9.148754447020747E-01 Y = 2.112218073028861E+00 Z =-5.083390421306128E-01
 VX=-1.164160520301366E-02 VY= 2.912235981140205E-03 VZ= 4.644154200012055E-04
2522186.500000000 = A.D. 2193-May-30 00:00:00.0000 TDB 
 X = 7.974641262157117E-01 Y = 2.138921162805472E+00 Z =-5.031176878875837E-01
 VX=-1.183699617997654E-02 VY= 2.425324845318769E-03 VZ= 5.801419777031259E-04
